ONEWEB-0379             
1 49305U 21090AC  25143.84761468  .00000208  00000+0  52786-3 0  9992
2 49305  87.9055   7.1584 0001670  81.5748 278.5571 13.14503869176413
ONEWEB-0380             
1 49306U 21090AD  25143.71425857 -.00000003  00000+0 -39933-4 0  9993
2 49306  87.9243  22.4013 0002032  78.8959 281.2402 13.19725165175059
ONEWEB-0381             
1 49307U 21090AE  25143.84417759  .00000031  00000+0  43704-4 0  9990
2 49307  87.9270 351.9759 0001975  79.4062 280.7293 13.20769378178437
ONEWEB-0382             
1 49308U 21090AF  25143.83154417  .00000067  00000+0  13335-3 0  9994
2 49308  87.9271 351.9727 0001827  75.9336 284.2000 13.20769908178428
ONEWEB-0383             
1 49309U 21090AG  25143.91739714  .00000292  00000+0  75374-3 0  9994
2 49309  87.9052   7.1255 0001626  79.3324 280.7989 13.14502328176456
ONEWEB-0384             
1 49310U 21090AH  25143.82787620  .00000104  00000+0  22475-3 0  9991
2 49310  87.9271 351.9903 0001750  68.4078 291.7242 13.20784250178431
ONEWEB-0385             
1 49311U 21090AJ  25143.59638714  .00000070  00000+0  14111-3 0  9995
2 49311  87.9272 352.0371 0001787  82.2100 277.9236 13.20770144178373
ONEWEB-0386             
1 49312U 21090AK  25143.84100914  .00000080  00000+0  16383-3 0  9994
2 49312  87.9265 351.9604 0001710  76.5490 283.5834 13.20770085178424
